start=new Date('2021-12-23T00:00:00.000Z').valueOf();
sats=[{"MEAN_MOTION":"15.06391629","PERIOD":"95.593","NORAD_CAT_ID":"47904","RA_OF_ASC_NODE":"326.1937","FILE":"3247541","CLASSIFICATION_TYPE":"U","COUNTRY_CODE":"US","MEAN_ANOMALY":"297.6202","PERIAPSIS":"546.087","EPHEMERIS_TYPE":"0","ARG_OF_PERICENTER":"62.4956","RCS_SIZE":"LARGE","OBJECT_ID":"2021-021AW","ELEMENT_SET_NO":"999","MEAN_MOTION_DDOT":"0.0000000000000","TLE_LINE1":"1 47904U 21021AW  21356.63849576 -.00001287  00000-0 -67496-4 0  9991","GP_ID":"192221622","BSTAR":"-0.00006749600000","REF_FRAME":"TEME","CENTER_NAME":"EARTH","TIME_SYSTEM":"UTC","LAUNCH_DATE":"2021-03-14","INCLINATION":"53.0571","MEAN_ELEMENT_THEORY":"SGP4","SITE":"AFETR","EPOCH":"2021-12-22T15:19:26.033664","DECAY_DATE":null,"REV_AT_EPOCH":"4404","ECCENTRICITY":"0.00016640","OBJECT_TYPE":"PAYLOAD","APOAPSIS":"548.392","TLE_LINE2":"2 47904  53.0571 326.1937 0001664  62.4956 297.6202 15.06391629 44049","MEAN_MOTION_DOT":"-0.00001287","OBJECT_NAME":"STARLINK-2364","SEMIMAJOR_AXIS":"6925.374"},{"OBJECT_NAME":"STARLINK-2365","SEMIMAJOR_AXIS":"6925.371","ECCENTRICITY":"0.00019470","OBJECT_TYPE":"PAYLOAD","REV_AT_EPOCH":"4404","MEAN_MOTION_DOT":"-0.00001146","APOAPSIS":"548.585","TLE_LINE2":"2 47905  53.0571 326.2168 0001947  59.4880 300.6301 15.06392626 44046","MEAN_ELEMENT_THEORY":"SGP4","EPOCH":"2021-12-22T15:14:07.585728","DECAY_DATE":null,"SITE":"AFETR","TIME_SYSTEM":"UTC","LAUNCH_DATE":"2021-03-14","CENTER_NAME":"EARTH","INCLINATION":"53.0571","GP_ID":"192221634","BSTAR":"-0.00005807500000","MEAN_MOTION_DDOT":"0.0000000000000","TLE_LINE1":"1 47905U 21021AX  21356.63481002 -.00001146  00000-0 -58075-4 0  9995","REF_FRAME":"TEME","RCS_SIZE":"LARGE","PERIAPSIS":"545.888","EPHEMERIS_TYPE":"0","ARG_OF_PERICENTER":"59.4880","OBJECT_ID":"2021-021AX","ELEMENT_SET_NO":"999","COUNTRY_CODE":"US","CLASSIFICATION_TYPE":"U","MEAN_ANOMALY":"300.6301","NORAD_CAT_ID":"47905","PERIOD":"95.593","MEAN_MOTION":"15.06392626","FILE":"3247542","RA_OF_ASC_NODE":"326.2168"},{"SEMIMAJOR_AXIS":"6718.000","OBJECT_NAME":"STARLINK-2366","MEAN_MOTION_DOT":"-0.00018024","TLE_LINE2":"2 47906  53.0493 257.4675 0001238  87.0345 273.0817 15.76676957 45566","APOAPSIS":"340.697","OBJECT_TYPE":"PAYLOAD","ECCENTRICITY":"0.00012380","REV_AT_EPOCH":"4556","DECAY_DATE":null,"EPOCH":"2021-12-22T10:23:21.402240","SITE":"AFETR","MEAN_ELEMENT_THEORY":"SGP4","INCLINATION":"53.0493","TIME_SYSTEM":"UTC","LAUNCH_DATE":"2021-03-14","CENTER_NAME":"EARTH","REF_FRAME":"TEME","BSTAR":"-0.00010659000000","GP_ID":"192218226","TLE_LINE1":"1 47906U 21021AY  21356.43288660 -.00018024  00000-0 -10659-3 0  9997","MEAN_MOTION_DDOT":"0.0000000000000","ELEMENT_SET_NO":"999","OBJECT_ID":"2021-021AY","RCS_SIZE":"LARGE","ARG_OF_PERICENTER":"87.0345","EPHEMERIS_TYPE":"0","PERIAPSIS":"339.034","MEAN_ANOMALY":"273.0817","COUNTRY_CODE":"US","CLASSIFICATION_TYPE":"U","FILE":"3247523","RA_OF_ASC_NODE":"257.4675","PERIOD":"91.331","NORAD_CAT_ID":"47906","MEAN_MOTION":"15.76676957"},{"MEAN_MOTION":"15.06392060","NORAD_CAT_ID":"47907","PERIOD":"95.593","RA_OF_ASC_NODE":"347.0729","FILE":"3247523","CLASSIFICATION_TYPE":"U","COUNTRY_CODE":"US","MEAN_ANOMALY":"294.9462","PERIAPSIS":"546.028","ARG_OF_PERICENTER":"65.1708","EPHEMERIS_TYPE":"0","RCS_SIZE":"LARGE","OBJECT_ID":"2021-021AZ","ELEMENT_SET_NO":"999","MEAN_MOTION_DDOT":"0.0000000000000","TLE_LINE1":"1 47907U 21021AZ  21356.44498855 -.00000868  00000-0 -39391-4 0  9990","GP_ID":"192217975","BSTAR":"-0.00003939100000","REF_FRAME":"TEME","CENTER_NAME":"EARTH","LAUNCH_DATE":"2021-03-14","TIME_SYSTEM":"UTC","INCLINATION":"53.0556","MEAN_ELEMENT_THEORY":"SGP4","SITE":"AFETR","EPOCH":"2021-12-22T10:40:47.010720","DECAY_DATE":null,"REV_AT_EPOCH":"4416","OBJECT_TYPE":"PAYLOAD","ECCENTRICITY":"0.00017470","APOAPSIS":"548.448","TLE_LINE2":"2 47907  53.0556 347.0729 0001747  65.1708 294.9462 15.06392060 44164","MEAN_MOTION_DOT":"-0.00000868","OBJECT_NAME":"STARLINK-2367","SEMIMAJOR_AXIS":"6925.373"},{"MEAN_ANOMALY":"325.2142","CLASSIFICATION_TYPE":"U","COUNTRY_CODE":"US","RA_OF_ASC_NODE":"347.0389","FILE":"3247523","MEAN_MOTION":"15.06386910","NORAD_CAT_ID":"47908","PERIOD":"95.593","REF_FRAME":"TEME","TLE_LINE1":"1 47908U 21021BA  21356.45234829 -.00002713  00000-0 -16337-3 0  9996","MEAN_MOTION_DDOT":"0.0000000000000","BSTAR":"-0.00016337000000","GP_ID":"192219228","OBJECT_ID":"2021-021BA","ELEMENT_SET_NO":"999","ARG_OF_PERICENTER":"34.8964","EPHEMERIS_TYPE":"0","PERIAPSIS":"546.013","RCS_SIZE":"LARGE","SITE":"AFETR","DECAY_DATE":null,"EPOCH":"2021-12-22T10:51:22.892256","MEAN_ELEMENT_THEORY":"SGP4","INCLINATION":"53.0577","CENTER_NAME":"EARTH","TIME_SYSTEM":"UTC","LAUNCH_DATE":"2021-03-14","SEMIMAJOR_AXIS":"6925.389","OBJECT_NAME":"STARLINK-2368","TLE_LINE2":"2 47908  53.0577 347.0389 0001791  34.8964 325.2142 15.06386910 44199","APOAPSIS":"548.494","MEAN_MOTION_DOT":"-0.00002713","REV_AT_EPOCH":"4419","OBJECT_TYPE":"PAYLOAD","ECCENTRICITY":"0.00017910"},{"MEAN_MOTION_DOT":"-0.00001322","APOAPSIS":"548.446","TLE_LINE2":"2 47909  53.0550 336.9701 0001766  57.1233 302.9926 15.06396860 44507","ECCENTRICITY":"0.00017660","OBJECT_TYPE":"PAYLOAD","REV_AT_EPOCH":"4450","SEMIMAJOR_AXIS":"6925.358","OBJECT_NAME":"STARLINK-2369","INCLINATION":"53.0550","LAUNCH_DATE":"2021-03-14","TIME_SYSTEM":"UTC","CENTER_NAME":"EARTH","EPOCH":"2021-12-22T11:13:56.775072","DECAY_DATE":null,"SITE":"AFETR","MEAN_ELEMENT_THEORY":"SGP4","ELEMENT_SET_NO":"999","OBJECT_ID":"2021-021BB","RCS_SIZE":"MEDIUM","PERIAPSIS":"546.000","ARG_OF_PERICENTER":"57.1233","EPHEMERIS_TYPE":"0","REF_FRAME":"TEME","GP_ID":"192218978","BSTAR":"-0.00006988400000","MEAN_MOTION_DDOT":"0.0000000000000","TLE_LINE1":"1 47909U 21021BB  21356.46801823 -.00001322  00000-0 -69884-4 0  9993","FILE":"3247523","RA_OF_ASC_NODE":"336.9701","PERIOD":"95.592","NORAD_CAT_ID":"47909","MEAN_MOTION":"15.06396860","MEAN_ANOMALY":"302.9926","COUNTRY_CODE":"US","CLASSIFICATION_TYPE":"U"},{"MEAN_ANOMALY":"306.5645","COUNTRY_CODE":"US","CLASSIFICATION_TYPE":"U","FILE":"3247523","RA_OF_ASC_NODE":"337.0907","NORAD_CAT_ID":"47910","PERIOD":"95.593","MEAN_MOTION":"15.06387306","REF_FRAME":"TEME","GP_ID":"192217726","BSTAR":"-0.00008451400000","MEAN_MOTION_DDOT":"0.0000000000000","TLE_LINE1":"1 47910U 21021BC  21356.43759105 -.00001540  00000-0 -84514-4 0  9996","OBJECT_ID":"2021-021BC","ELEMENT_SET_NO":"999","RCS_SIZE":"LARGE","PERIAPSIS":"545.919","EPHEMERIS_TYPE":"0","ARG_OF_PERICENTER":"53.5521","EPOCH":"2021-12-22T10:30:07.866720","DECAY_DATE":null,"SITE":"AFETR","MEAN_ELEMENT_THEORY":"SGP4","INCLINATION":"53.0565","LAUNCH_DATE":"2021-03-14","TIME_SYSTEM":"UTC","CENTER_NAME":"EARTH","SEMIMAJOR_AXIS":"6925.387","OBJECT_NAME":"STARLINK-2370","MEAN_MOTION_DOT":"-0.00001540","APOAPSIS":"548.586","TLE_LINE2":"2 47910  53.0565 337.0907 0001926  53.5521 306.5645 15.06387306 44359","OBJECT_TYPE":"PAYLOAD","ECCENTRICITY":"0.00019260","REV_AT_EPOCH":"4435"},{"MEAN_ANOMALY":"300.6002","CLASSIFICATION_TYPE":"U","COUNTRY_CODE":"US","RA_OF_ASC_NODE":"352.1401","FILE":"3247523","MEAN_MOTION":"15.06393988","PERIOD":"95.593","NORAD_CAT_ID":"47911","REF_FRAME":"TEME","MEAN_MOTION_DDOT":"0.0000000000000","TLE_LINE1":"1 47911U 21021BD  21356.43068086 -.00001642  00000-0 -91372-4 0  9991","GP_ID":"192218476","BSTAR":"-0.00009137200000","OBJECT_ID":"2021-021BD","ELEMENT_SET_NO":"999","PERIAPSIS":"546.001","ARG_OF_PERICENTER":"59.5162","EPHEMERIS_TYPE":"0","RCS_SIZE":"LARGE","SITE":"AFETR","EPOCH":"2021-12-22T10:20:10.826304","DECAY_DATE":null,"MEAN_ELEMENT_THEORY":"SGP4","INCLINATION":"53.0555","CENTER_NAME":"EARTH","LAUNCH_DATE":"2021-03-14","TIME_SYSTEM":"UTC","SEMIMAJOR_AXIS":"6925.367","OBJECT_NAME":"STARLINK-2371","APOAPSIS":"548.463","TLE_LINE2":"2 47911  53.0555 352.1401 0001778  59.5162 300.6002 15.06393988 43970","MEAN_MOTION_DOT":"-0.00001642","REV_AT_EPOCH":"4397","OBJECT_TYPE":"PAYLOAD","ECCENTRICITY":"0.00017780"},{"MEAN_MOTION_DOT":"-0.00001203","TLE_LINE2":"2 47912  53.0542 337.1200 0001871  60.2965 299.8210 15.06397557 44181","APOAPSIS":"548.517","OBJECT_TYPE":"PAYLOAD","ECCENTRICITY":"0.00018710","REV_AT_EPOCH":"4418","SEMIMAJOR_AXIS":"6925.356","OBJECT_NAME":"STARLINK-2372","INCLINATION":"53.0542","LAUNCH_DATE":"2021-03-14","TIME_SYSTEM":"UTC","CENTER_NAME":"EARTH","DECAY_DATE":null,"EPOCH":"2021-12-22T10:20:52.255104","SITE":"AFETR","MEAN_ELEMENT_THEORY":"SGP4","OBJECT_ID":"2021-021BE","ELEMENT_SET_NO":"999","RCS_SIZE":"LARGE","EPHEMERIS_TYPE":"0","ARG_OF_PERICENTER":"60.2965","PERIAPSIS":"545.925","REF_FRAME":"TEME","BSTAR":"-0.00006184300000","GP_ID":"192218728","TLE_LINE1":"1 47912U 21021BE  21356.43116036 -.00001203  00000-0 -61843-4 0  9994","MEAN_MOTION_DDOT":"0.0000000000000","FILE":"3247523","RA_OF_ASC_NODE":"337.1200","NORAD_CAT_ID":"47912","PERIOD":"95.592","MEAN_MOTION":"15.06397557","MEAN_ANOMALY":"299.8210","COUNTRY_CODE":"US","CLASSIFICATION_TYPE":"U"},{"DECAY_DATE":null,"EPOCH":"2021-12-22T09:25:06.282912","SITE":"AFETR","MEAN_ELEMENT_THEORY":"SGP4","INCLINATION":"53.0568","LAUNCH_DATE":"2021-03-14","TIME_SYSTEM":"UTC","CENTER_NAME":"EARTH","SEMIMAJOR_AXIS":"6925.367","OBJECT_NAME":"STARLINK-2374","MEAN_MOTION_DOT":"-0.00001492","TLE_LINE2":"2 47913  53.0568 347.3151 0001827  56.0299 304.0863 15.06393827 44204","APOAPSIS":"548.498","ECCENTRICITY":"0.00018270","OBJECT_TYPE":"PAYLOAD","REV_AT_EPOCH":"4420","MEAN_ANOMALY":"304.0863","COUNTRY_CODE":"US","CLASSIFICATION_TYPE":"U","FILE":"3247523","RA_OF_ASC_NODE":"347.3151","NORAD_CAT_ID":"47913","PERIOD":"95.593","MEAN_MOTION":"15.06393827","REF_FRAME":"TEME","BSTAR":"-0.00008129000000","GP_ID":"192219479","TLE_LINE1":"1 47913U 21021BF  21356.39243383 -.00001492  00000-0 -81290-4 0  9994","MEAN_MOTION_DDOT":"0.0000000000000","ELEMENT_SET_NO":"999","OBJECT_ID":"2021-021BF","RCS_SIZE":"LARGE","EPHEMERIS_TYPE":"0","ARG_OF_PERICENTER":"56.0299","PERIAPSIS":"545.967"}];
